OBJECT_NAME,OBJECT_ID,EPOCH,MEAN_MOTION,ECCENTRICITY,INCLINATION,RA_OF_ASC_NODE,ARG_OF_PERICENTER,MEAN_ANOMALY,EPHEMERIS_TYPE,CLASSIFICATION_TYPE,NORAD_CAT_ID,ELEMENT_SET_NO,REV_AT_EPOCH,BSTAR,MEAN_MOTION_DOT,MEAN_MOTION_DDOT
H-2A R/B,2006-002B,2026-06-11T21:54:51.099552,15.17995315,.00496214,98.2553,318.2658,280.7326,78.8321,0,U,28932,999,10872,.30417477E-3,.6301E-4,0
RESURS-DK 1,2006-021A,2026-06-11T22:41:20.756832,15.13194127,.00067005,69.9338,353.1217,295.8467,64.2008,0,U,29228,999,10178,.12897377E-3,.2187E-4,0
CZ-4B R/B,2006-046C,2026-06-11T17:09:26.675712,15.17744091,.00311757,97.5459,207.3388,302.7726,57.0505,0,U,29507,999,7430,.17059107E-3,.3414E-4,0
CZ-2C R/B,2007-010B,2026-06-11T22:00:45.057024,14.20275034,.00593349,98.4093,271.5260,21.4070,338.9570,0,U,31114,999,99309,.46247653E-4,.6E-6,0
COSMO-SKYMED 1,2007-023A,2026-06-11T23:43:26.876928,14.97074685,.00009981,97.8847,354.8014,89.5960,270.5376,0,U,31598,999,2901,.1824733E-3,.2044E-4,0
COSMOS 2428,2007-029A,2026-06-11T21:42:53.633088,14.12929127,.00072214,70.9372,5.5693,145.2270,214.9324,0,U,31792,999,97740,-.5019995E-4,-.141E-5,0
SL-16 R/B,2007-029B,2026-06-11T23:00:50.603328,14.14852389,.0002229,70.9764,334.2191,259.6810,215.1039,0,U,31793,999,97870,.16972946E-3,.28E-5,0
KORONAS-FOTON,2009-003A,2026-06-11T13:48:57.810240,15.45608630,.00110754,82.4288,178.1127,166.0575,194.0981,0,U,33504,999,96023,.21616274E-3,.10464E-3,0
CZ-2C R/B,2011-030B,2026-06-11T21:48:30.125664,14.81458397,.00534339,97.8654,118.3902,44.8634,21.1153,0,U,37731,999,80404,.14128526E-3,.1079E-4,0
H-2A R/B,2012-025E,2026-06-11T22:31:56.583840,14.95688125,.0044005,98.4817,137.6517,6.3952,353.7819,0,U,38341,999,76230,.26918767E-3,.2983E-4,0
SHIJIAN-16 (SJ-16),2013-057A,2026-06-11T22:39:41.256000,14.92598588,.00169011,74.9737,6.6142,242.9813,116.9651,0,U,39358,999,68556,.1012112E-3,.1015E-4,0
SL-4 R/B,2014-021B,2026-06-11T10:12:15.136416,15.41833581,.0091459,51.6055,238.9984,85.0382,276.1037,0,U,39679,999,67072,.21183E-3,.10157E-3,0
ALOS-2,2014-029A,2026-06-11T22:21:16.696800,14.79471249,.00016238,97.9211,260.1701,89.6554,270.4844,0,U,39766,999,65080,.11027159E-3,.772E-5,0
YAOGAN-29,2015-069A,2026-06-11T23:35:10.720608,14.83082389,.00028336,98.0036,191.6074,63.9984,296.1520,0,U,41038,999,56985,.94699633E-4,.717E-5,0
ASTRO-H (HITOMI),2016-012A,2026-06-11T03:40:24.536064,15.10484459,.00096914,30.9976,113.1571,193.5931,166.4447,0,U,41337,999,56637,.12121007E-3,.2143E-4,0
HXMT (HUIYAN),2017-034A,2026-06-11T14:36:48.621312,15.18442350,.00302145,43.0133,214.1024,110.4509,249.9587,0,U,42758,999,49681,.20409076E-3,.4085E-4,0
SAOCOM 1A,2018-076A,2026-06-11T22:30:17.050176,14.82145082,.00015844,97.8887,349.7631,79.6780,280.4611,0,U,43641,999,41532,.11408238E-3,.856E-5,0
H-2A R/B,2018-084L,2026-06-11T18:04:11.389440,15.44947667,.00240135,98.8595,40.4564,58.5180,301.8406,0,U,43682,999,42028,.42436763E-3,.20098E-3,0
SAOCOM 1B,2020-059A,2026-06-11T23:15:17.793216,14.82168332,.00015195,97.8892,348.8888,82.2525,277.8860,0,U,46265,999,31271,.80925115E-4,.592E-5,0
CSS (TIANHE),2021-035A,2026-06-11T20:35:12.960096,15.60577765,.00081612,41.4694,354.4301,33.9866,326.1495,0,U,48274,999,29233,.20494863E-3,.17149E-3,0
COSMOS 2550,2021-056A,2026-06-08T19:23:25.914048,15.33755463,.0008705,67.1416,125.2525,266.0377,93.9783,0,U,48865,999,27743,.19790476E-3,.631E-4,0
CZ-2C R/B,2022-058K,2026-06-11T13:08:16.384704,15.61464510,.0032809,50.1845,192.8563,244.4691,115.2888,0,U,52794,999,22476,.37052E-3,.32812E-3,0
CZ-2C R/B,2022-132E,2026-06-11T22:19:18.489504,15.70915470,.00167286,97.2900,169.7214,100.5290,259.7859,0,U,54039,999,20512,.47266327E-3,.5957E-3,0
GSLV R/B,2022-138AN,2026-06-11T23:18:57.579264,14.97232416,.00220923,87.3795,134.7357,161.5202,198.6838,0,U,54149,999,19803,.15751586E-3,.186E-4,0
XRISM,2023-137A,2026-06-11T21:51:49.509216,15.12420473,.00079469,31.0029,33.7769,270.9614,89.0115,0,U,57800,999,15206,.24090571E-3,.439E-4,0
ACS3,2024-077B,2026-06-11T12:49:49.247328,13.93897959,.0060015,97.1682,82.5854,68.1976,292.5561,0,U,59588,999,10725,.53553E-2,.7151E-4,0
CZ-8A R/B,2025-231K,2026-06-11T22:49:47.597376,14.30153411,.01164756,50.0047,61.5920,205.5764,153.9361,0,U,66004,999,3419,.41333084E-4,-.48E-6,0
SZ-21 MODULE,2025-246C,2026-06-11T04:42:51.675552,15.75880017,.00071055,41.4739,344.6241,312.3917,47.6325,0,U,66515,999,3279,.26187136E-3,.4164E-3,0
